{"type": "FeatureCollection", "features": [ {"type": "Feature", "properties": {"norad_id": 36437, "name": "COSMOS 2251 DEB", "group": "cosmos-2251-debris", "lat": 20.466614510020214, "lon": -142.15682271131936, "alt_km": 666.2706374317713, "timestamp": "2025-12-07T14:37:05.600807+00:00", "meta": {"OBJECT_NAME": "COSMOS 2251 DEB", "OBJECT_ID": "1993-036BAL", "EPOCH": "2025-12-06T21:34:12.437184", "MEAN_MOTION": 14.7053165, "ECCENTRICITY": 0.0023194, "INCLINATION": 73.9424, "RA_OF_ASC_NODE": 45.3999, "ARG_OF_PERICENTER": 276.8384, "MEAN_ANOMALY": 83.0148, "EPHEMERIS_TYPE": 0, "CLASSIFICATION_TYPE": "U", "NORAD_CAT_ID": 36437, "ELEMENT_SET_NO": 999, "REV_AT_EPOCH": 65965, "BSTAR": 0.0022850759, "MEAN_MOTION_DOT": 0.00013925, "MEAN_MOTION_DDOT": 0}, "tle": {"line1": "1 36437U 93036BAL 25340.89875506  .00013925  00000+0  22851-2 0  9995", "line2": "2 36437  73.9424  45.3999 0023194 276.8384  83.0148 14.70531650659657"}}, "geometry": {"type": "Point", "coordinates": [-142.15682271131936, 20.466614510020214]}}, {"type": "Feature", "properties": {"norad_id": 36439, "name": "COSMOS 2251 DEB", "group": "cosmos-2251-debris", "lat": -13.426877421346255, "lon": -131.15989841703188, "alt_km": 1402.5543431655506, "timestamp": "2025-12-07T14:37:05.600817+00:00", "meta": {"OBJECT_NAME": "COSMOS 2251 DEB", "OBJECT_ID": "1993-036BAN", "EPOCH": "2025-12-06T12:43:47.991648", "MEAN_MOTION": 13.47777832, "ECCENTRICITY": 0.04274607, "INCLINATION": 73.9681, "RA_OF_ASC_NODE": 46.625, "ARG_OF_PERICENTER": 19.776, "MEAN_ANOMALY": 341.9362, "EPHEMERIS_TYPE": 0, "CLASSIFICATION_TYPE": "U", "NORAD_CAT_ID": 36439, "ELEMENT_SET_NO": 999, "REV_AT_EPOCH": 58529, "BSTAR": 0.0013215919, "MEAN_MOTION_DOT": 1.402e-05, "MEAN_MOTION_DDOT": 0}, "tle": {"line1": "1 36439U 93036BAN 25340.53041657  .00001402  00000+0  13216-2 0  9992", "line2": "2 36439  73.9681  46.6250 0427460  19.7760 341.9362 13.47777832585293"}}, "geometry": {"type": "Point", "coordinates": [-131.15989841703188, -13.426877421346255]}}, {"type": "Feature", "properties": {"norad_id": 36441, "name": "COSMOS 2251 DEB", "group": "cosmos-2251-debris", "lat": -45.35314810320901, "lon": -16.65163175991034, "alt_km": 616.5813381337975, "timestamp": "2025-12-07T14:37:05.600827+00:00", "meta": {"OBJECT_NAME": "COSMOS 2251 DEB", "OBJECT_ID": "1993-036BAQ", "EPOCH": "2025-12-04T18:18:25.005024", "MEAN_MOTION": 15.06603971, "ECCENTRICITY": 0.01084902, "INCLINATION": 73.8352, "RA_OF_ASC_NODE": 6.3404, "ARG_OF_PERICENTER": 107.4279, "MEAN_ANOMALY": 253.8807, "EPHEMERIS_TYPE": 0, "CLASSIFICATION_TYPE": "U", "NORAD_CAT_ID": 36441, "ELEMENT_SET_NO": 999, "REV_AT_EPOCH": 86845, "BSTAR": 0.00090032635, "MEAN_MOTION_DOT": 0.00015248, "MEAN_MOTION_DDOT": 0}, "tle": {"line1": "1 36441U 93036BAQ 25338.76278941  .00015248  00000+0  90033-3 0  9991", "line2": "2 36441  73.8352   6.3404 0108490 107.4279 253.8807 15.06603971868459"}}, "geometry": {"type": "Point", "coordinates": [-16.65163175991034, -45.35314810320901]}}, {"type": "Feature", "properties": {"norad_id": 36442, "name": "COSMOS 2251 DEB", "group": "cosmos-2251-debris", "lat": 45.97295542969071, "lon": 67.55160578073831, "alt_km": 483.3912605041487, "timestamp": "2025-12-07T14:37:05.600849+00:00", "meta": {"OBJECT_NAME": "COSMOS 2251 DEB", "OBJECT_ID": "1993-036BAR", "EPOCH": "2025-11-30T23:26:58.990560", "MEAN_MOTION": 15.24721511, "ECCENTRICITY": 0.00074124, "INCLINATION": 73.9503, "RA_OF_ASC_NODE": 64.3117, "ARG_OF_PERICENTER": 319.957, "MEAN_ANOMALY": 40.1082, "EPHEMERIS_TYPE": 0, "CLASSIFICATION_TYPE": "U", "NORAD_CAT_ID": 36442, "ELEMENT_SET_NO": 999, "REV_AT_EPOCH": 85736, "BSTAR": 0.0052461948, "MEAN_MOTION_DOT": 0.00132297, "MEAN_MOTION_DDOT": 0}, "tle": {"line1": "1 36442U 93036BAR 25334.97707165  .00132297  00000+0  52462-2 0  9993", "line2": "2 36442  73.9503  64.3117 0007412 319.9570  40.1082 15.24721511857361"}}, "geometry": {"type": "Point", "coordinates": [67.55160578073831, 45.97295542969071]}}, {"type": "Feature", "properties": {"norad_id": 36451, "name": "COSMOS 2251 DEB", "group": "cosmos-2251-debris", "lat": 17.779289268335535, "lon": 159.13851458511502, "alt_km": 698.3334974406434, "timestamp": "2025-12-07T14:37:05.600859+00:00", "meta": {"OBJECT_NAME": "COSMOS 2251 DEB", "OBJECT_ID": "1993-036BBA", "EPOCH": "2025-12-06T07:23:52.845792", "MEAN_MOTION": 14.18714463, "ECCENTRICITY": 0.01842542, "INCLINATION": 73.9539, "RA_OF_ASC_NODE": 346.7676, "ARG_OF_PERICENTER": 172.6411, "MEAN_ANOMALY": 187.7508, "EPHEMERIS_TYPE": 0, "CLASSIFICATION_TYPE": "U", "NORAD_CAT_ID": 36451, "ELEMENT_SET_NO": 999, "REV_AT_EPOCH": 84134, "BSTAR": 0.0013122334, "MEAN_MOTION_DOT": 3.2e-05, "MEAN_MOTION_DDOT": 0}, "tle": {"line1": "1 36451U 93036BBA 25340.30825053  .00003200  00000+0  13122-2 0  9995", "line2": "2 36451  73.9539 346.7676 0184254 172.6411 187.7508 14.18714463841347"}}, "geometry": {"type": "Point", "coordinates": [159.13851458511502, 17.779289268335535]}}, {"type": "Feature", "properties": {"norad_id": 36453, "name": "COSMOS 2251 DEB", "group": "cosmos-2251-debris", "lat": 26.75697991880923, "lon": -26.230075005571702, "alt_km": 711.191903998214, "timestamp": "2025-12-07T14:37:05.600870+00:00", "meta": {"OBJECT_NAME": "COSMOS 2251 DEB", "OBJECT_ID": "1993-036BBC", "EPOCH": "2025-12-05T22:56:55.070880", "MEAN_MOTION": 14.52531816, "ECCENTRICITY": 0.00702998, "INCLINATION": 73.9232, "RA_OF_ASC_NODE": 165.2675, "ARG_OF_PERICENTER": 70.5371, "MEAN_ANOMALY": 80.8599, "EPHEMERIS_TYPE": 0, "CLASSIFICATION_TYPE": "U", "NORAD_CAT_ID": 36453, "ELEMENT_SET_NO": 999, "REV_AT_EPOCH": 84369, "BSTAR": 0.0014781095, "MEAN_MOTION_DOT": 6.214e-05, "MEAN_MOTION_DDOT": 0}, "tle": {"line1": "1 36453U 93036BBC 25339.95619295  .00006214  00000+0  14781-2 0  9995", "line2": "2 36453  73.9232 165.2675 0070299  70.5371  80.8599 14.52531816843696"}}, "geometry": {"type": "Point", "coordinates": [-26.230075005571702, 26.75697991880923]}}, {"type": "Feature", "properties": {"norad_id": 36459, "name": "COSMOS 2251 DEB", "group": "cosmos-2251-debris", "lat": -13.790390593706558, "lon": -166.9002883400663, "alt_km": 803.985957678171, "timestamp": "2025-12-07T14:37:05.600880+00:00", "meta": {"OBJECT_NAME": "COSMOS 2251 DEB", "OBJECT_ID": "1993-036BBJ", "EPOCH": "2025-11-27T21:25:14.011392", "MEAN_MOTION": 14.2626117, "ECCENTRICITY": 0.0114133, "INCLINATION": 74.0487, "RA_OF_ASC_NODE": 26.6161, "ARG_OF_PERICENTER": 126.4072, "MEAN_ANOMALY": 234.7668, "EPHEMERIS_TYPE": 0, "CLASSIFICATION_TYPE": "U", "NORAD_CAT_ID": 36459, "ELEMENT_SET_NO": 999, "REV_AT_EPOCH": 7670, "BSTAR": 0.0017749, "MEAN_MOTION_DOT": 4.537e-05, "MEAN_MOTION_DDOT": 0}, "tle": {"line1": "1 36459U 93036BBJ 25331.89252328  .00004537  00000+0  17749-2 0  9999", "line2": "2 36459  74.0487  26.6161 0114133 126.4072 234.7668 14.26261170 76702"}}, "geometry": {"type": "Point", "coordinates": [-166.9002883400663, -13.790390593706558]}}, {"type": "Feature", "properties": {"norad_id": 36470, "name": "COSMOS 2251 DEB", "group": "cosmos-2251-debris", "lat": -6.22429692785671, "lon": 86.88716561054997, "alt_km": 552.3991480359828, "timestamp": "2025-12-07T14:37:05.600890+00:00", "meta": {"OBJECT_NAME": "COSMOS 2251 DEB", "OBJECT_ID": "1993-036BBV", "EPOCH": "2025-12-02T03:03:18.136800", "MEAN_MOTION": 15.05586615, "ECCENTRICITY": 0.00218493, "INCLINATION": 73.8455, "RA_OF_ASC_NODE": 276.4446, "ARG_OF_PERICENTER": 104.1241, "MEAN_ANOMALY": 256.2378, "EPHEMERIS_TYPE": 0, "CLASSIFICATION_TYPE": "U", "NORAD_CAT_ID": 36470, "ELEMENT_SET_NO": 999, "REV_AT_EPOCH": 65934, "BSTAR": 0.0040110233, "MEAN_MOTION_DOT": 0.00058582, "MEAN_MOTION_DDOT": 0}, "tle": {"line1": "1 36470U 93036BBV 25336.12729325  .00058582  00000+0  40110-2 0  9996", "line2": "2 36470  73.8455 276.4446 0021849 104.1241 256.2378 15.05586615659346"}}, "geometry": {"type": "Point", "coordinates": [86.88716561054997, -6.22429692785671]}}, {"type": "Feature", "properties": {"norad_id": 36528, "name": "COSMOS 2251 DEB", "group": "cosmos-2251-debris", "lat": -45.754140684474926, "lon": -8.311228475102702, "alt_km": 739.5386018816762, "timestamp": "2025-12-07T14:37:05.600900+00:00", "meta": {"OBJECT_NAME": "COSMOS 2251 DEB", "OBJECT_ID": "1993-036BCN", "EPOCH": "2025-11-28T19:45:32.756256", "MEAN_MOTION": 14.30521775, "ECCENTRICITY": 0.00858193, "INCLINATION": 74.0168, "RA_OF_ASC_NODE": 170.5765, "ARG_OF_PERICENTER": 223.2164, "MEAN_ANOMALY": 136.2231, "EPHEMERIS_TYPE": 0, "CLASSIFICATION_TYPE": "U", "NORAD_CAT_ID": 36528, "ELEMENT_SET_NO": 999, "REV_AT_EPOCH": 64228, "BSTAR": 0.00075224171, "MEAN_MOTION_DOT": 2.015e-05, "MEAN_MOTION_DDOT": 0}, "tle": {"line1": "1 36528U 93036BCN 25332.82329579  .00002015  00000+0  75224-3 0  9995", "line2": "2 36528  74.0168 170.5765 0085819 223.2164 136.2231 14.30521775642289"}}, "geometry": {"type": "Point", "coordinates": [-8.311228475102702, -45.754140684474926]}}, {"type": "Feature", "properties": {"norad_id": 36533, "name": "COSMOS 2251 DEB", "group": "cosmos-2251-debris", "lat": 31.18052044461048, "lon": 134.46726780379467, "alt_km": 740.6903146502027, "timestamp": "2025-12-07T14:37:05.600911+00:00", "meta": {"OBJECT_NAME": "COSMOS 2251 DEB", "OBJECT_ID": "1993-036BCT", "EPOCH": "2025-12-05T09:28:22.802304", "MEAN_MOTION": 14.49771796, "ECCENTRICITY": 0.00491042, "INCLINATION": 74.0105, "RA_OF_ASC_NODE": 128.6364, "ARG_OF_PERICENTER": 279.0553, "MEAN_ANOMALY": 80.5052, "EPHEMERIS_TYPE": 0, "CLASSIFICATION_TYPE": "U", "NORAD_CAT_ID": 36533, "ELEMENT_SET_NO": 999, "REV_AT_EPOCH": 84378, "BSTAR": 0.00081257397, "MEAN_MOTION_DOT": 3.153e-05, "MEAN_MOTION_DDOT": 0}, "tle": {"line1": "1 36533U 93036BCT 25339.39470836  .00003153  00000+0  81257-3 0  9990", "line2": "2 36533  74.0105 128.6364 0049104 279.0553  80.5052 14.49771796843783"}}, "geometry": {"type": "Point", "coordinates": [134.46726780379467, 31.18052044461048]}}]}